[
    {
        "Altitude(m)": 624792.7798260816,
        "Argument of Periapsis(deg)": 0.0,
        "Eccentricity": 0.0,
        "Inclination(deg)": 60.0,
        "Latitude(deg)": -59.14711107930953,
        "Longitude(deg)": -160.9737732813586,
        "Mean Anomaly(deg)": 261.8182,
        "RAAN(deg)": 45.0,
        "Satellite Name": "Test1 214",
        "Satellite Number": 214,
        "Semi-Major Axis(m)": 6980739.136638005,
        "Time(s)": 0
    },
    {
        "Altitude(m)": 624842.1725219699,
        "Argument of Periapsis(deg)": 0.00010418945913296404,
        "Eccentricity": 0.0,
        "Inclination(deg)": 60.0,
        "Latitude(deg)": -59.28919674351032,
        "Longitude(deg)": -159.8442693979012,
        "Mean Anomaly(deg)": 262.43830614546187,
        "RAAN(deg)": 44.99957995086026,
        "Satellite Name": "Test1 214",
        "Satellite Number": 214,
        "Semi-Major Axis(m)": 6980739.136638005,
        "Time(s)": 10
    }
]